NORAD_CAT_ID,OBJECT_NAME,OBJECT_TYPE,EPOCH,MEAN_MOTION,ECCENTRICITY,INCLINATION,RA_OF_ASC_NODE,ARG_OF_PERICENTER,MEAN_ANOMALY,BSTAR,MEAN_MOTION_DOT,MEAN_MOTION_DDOT,TLE_LINE0,TLE_LINE1,TLE_LINE2,SEMIMAJOR_AXIS,PERIOD,APOGEE,PERIGEE,DECAYED
52581.0,STARLINK-3915,PAYLOAD,2023-12-20 16:34:29,15.08833207,0.0001308,53.2169,155.3458,93.9641,266.1501,-7.3493e-06,-4.05e-06,0.0,0 STARLINK-3915,1 52581U 22051AX  23354.69061368 -.00000405  00000-0 -73493-5 0  9999,2 52581  53.2169 155.3458 0001308  93.9641 266.1501 15.08833207 89379,6917.901,95.438,540.671,538.861,0.0
52581.0,STARLINK-3915,PAYLOAD,2023-12-21 14:49:53,15.08833666,0.000131,53.2172,151.1824,93.0238,267.0904,5.163e-05,5.34e-06,0.0,0 STARLINK-3915,1 52581U 22051AX  23355.61797573  .00000534  00000-0  51630-4 0  9995,2 52581  53.2172 151.1824 0001310  93.0238 267.0904 15.08833666 89444,6917.9,95.438,540.671,538.859,0.0
52581.0,STARLINK-3915,PAYLOAD,2023-12-22 14:40:39,15.08842959,0.000123,53.2171,146.7251,80.8577,279.2554,0.00017918,2.565e-05,0.0,0 STARLINK-3915,1 52581U 22051AX  23356.61156989  .00002565  00000-0  17918-3 0  9992,2 52581  53.2171 146.7251 0001230  80.8577 279.2554 15.08842959 89595,6917.871,95.437,540.587,538.885,0.0
52581.0,STARLINK-3915,PAYLOAD,2023-12-22 17:51:25,15.08847718,0.0001345,53.2176,146.1302,70.996,289.1177,0.00024671,3.641e-05,0.0,0 STARLINK-3915,1 52581U 22051AX  23356.74404687  .00003641  00000-0  24671-3 0  9997,2 52581  53.2176 146.1302 0001345  70.9960 289.1177 15.08847718 89683,6917.857,95.437,540.652,538.791,0.0
52581.0,STARLINK-3915,PAYLOAD,2023-12-23 14:31:27,15.08840392,0.0001373,53.2169,142.263,79.3459,280.7687,1.4327e-05,-6e-07,0.0,0 STARLINK-3915,1 52581U 22051AX  23357.60517463 -.00000060  00000-0  14327-4 0  9991,2 52581  53.2169 142.2630 0001373  79.3459 280.7687 15.08840392 89744,6917.879,95.438,540.694,538.794,0.0
52581.0,STARLINK-3915,PAYLOAD,2023-12-23 19:17:36,15.08844462,0.00015,53.2179,141.3715,73.0604,287.0552,6.1763e-05,6.95e-06,0.0,0 STARLINK-3915,1 52581U 22051AX  23357.80389457  .00000695  00000-0  61763-4 0  9992,2 52581  53.2179 141.3715 0001500  73.0604 287.0552 15.08844462 89848,6917.867,95.437,540.769,538.694,0.0
52581.0,STARLINK-3915,PAYLOAD,2023-12-24 14:22:13,15.08841213,0.0001275,53.2179,137.8007,93.0445,267.0693,0.00034257,5.168e-05,0.0,0 STARLINK-3915,1 52581U 22051AX  23358.59877206  .00005168  00000-0  34257-3 0  9990,2 52581  53.2179 137.8007 0001275  93.0445 267.0693 15.08841213 89896,6917.877,95.437,540.624,538.86,0.0
52581.0,STARLINK-3915,PAYLOAD,2023-12-24 15:57:36,15.08851011,0.0001456,53.2174,137.5045,78.598,281.5175,9.8947e-05,1.288e-05,0.0,0 STARLINK-3915,1 52581U 22051AX  23358.66500803  .00001288  00000-0  98947-4 0  9990,2 52581  53.2174 137.5045 0001456  78.5980 281.5175 15.08851011 89908,6917.847,95.437,540.719,538.704,0.0
52581.0,STARLINK-3915,PAYLOAD,2023-12-25 09:26:51,15.08839735,0.0001509,53.2167,134.2361,88.0734,272.0431,7.5662e-05,9.16e-06,0.0,0 STARLINK-3915,1 52581U 22051AX  23359.39365449  .00000916  00000-0  75662-4 0  9992,2 52581  53.2167 134.2361 0001509  88.0734 272.0431 15.08839735 90087,6917.881,95.438,540.79,538.702,0.0
52581.0,STARLINK-3915,PAYLOAD,2023-12-25 14:13:00,15.08841504,0.0001358,53.2154,133.3438,100.781,259.3335,7.268e-05,8.69e-06,0.0,0 STARLINK-3915,1 52581U 22051AX  23359.59237250  .00000869  00000-0  72680-4 0  9996,2 52581  53.2154 133.3438 0001358 100.7810 259.3335 15.08841504 90041,6917.876,95.437,540.68,538.801,0.0
52581.0,STARLINK-3915,PAYLOAD,2023-12-25 15:48:24,15.08841904,0.0001353,53.2156,133.0465,101.9543,258.1601,8.2648e-05,1.028e-05,0.0,0 STARLINK-3915,1 52581U 22051AX  23359.65861219  .00001028  00000-0  82648-4 0  9994,2 52581  53.2156 133.0465 0001353 101.9543 258.1601 15.08841904 90059,6917.875,95.437,540.676,538.804,0.0
52581.0,STARLINK-3915,PAYLOAD,2023-12-26 14:03:48,15.08839228,0.0001418,53.2165,128.8842,73.0603,287.0545,-1.4138e-05,-5.13e-06,0.0,0 STARLINK-3915,1 52581U 22051AX  23360.58597653 -.00000513  00000-0 -14138-4 0  9995,2 52581  53.2165 128.8842 0001418  73.0603 287.0545 15.08839228 90197,6917.883,95.438,540.729,538.767,0.0
52581.0,STARLINK-3915,PAYLOAD,2023-12-27 13:54:35,15.08843928,0.0001274,53.2165,124.423,91.2777,268.8361,0.00015844,2.235e-05,0.0,0 STARLINK-3915,1 52581U 22051AX  23361.57957443  .00002235  00000-0  15844-3 0  9997,2 52581  53.2165 124.4230 0001274  91.2777 268.8361 15.08843928 90346,6917.868,95.437,540.615,538.852,0.0
52581.0,STARLINK-3915,PAYLOAD,2023-12-28 12:09:59,15.08835613,0.0001365,53.2177,120.2598,85.7369,274.3779,6.2801e-05,7.12e-06,0.0,0 STARLINK-3915,1 52581U 22051AX  23362.50694344  .00000712  00000-0  62801-4 0  9993,2 52581  53.2177 120.2598 0001365  85.7369 274.3779 15.08835613 90556,6917.894,95.438,540.703,538.815,0.0
52581.0,STARLINK-3915,PAYLOAD,2023-12-28 13:45:23,15.08833776,0.0001325,53.2169,119.9642,83.8082,276.3061,5.7673e-05,6.3e-06,0.0,0 STARLINK-3915,1 52581U 22051AX  23362.57318466  .00000630  00000-0  57673-4 0  9998,2 52581  53.2169 119.9642 0001325  83.8082 276.3061 15.08833776 90496,6917.899,95.438,540.681,538.848,0.0
52581.0,STARLINK-3915,PAYLOAD,2023-12-28 15:20:46,15.08834488,0.0001333,53.217,119.6661,87.1903,272.9241,8.2238e-06,-1.57e-06,0.0,0 STARLINK-3915,1 52581U 22051AX  23362.63942508 -.00000157  00000-0  82238-5 0  9996,2 52581  53.2170 119.6661 0001333  87.1903 272.9241 15.08834488 90509,6917.897,95.438,540.684,538.84,0.0
52581.0,STARLINK-3915,PAYLOAD,2023-12-29 13:36:09,15.08843761,0.0001247,53.2171,115.5026,90.642,269.4715,2.2929e-05,7.7e-07,0.0,0 STARLINK-3915,1 52581U 22051AX  23363.56678084  .00000077  00000-0  22929-4 0  9994,2 52581  53.2171 115.5026 0001247  90.6420 269.4715 15.08843761 90643,6917.869,95.437,540.597,538.871,0.0
52581.0,STARLINK-3915,PAYLOAD,2023-12-29 15:11:33,15.0883613,0.0001214,53.2172,115.2053,95.1908,264.9223,0.00019938,2.886e-05,0.0,0 STARLINK-3915,1 52581U 22051AX  23363.63302103  .00002886  00000-0  19938-3 0  9993,2 52581  53.2172 115.2053 0001214  95.1908 264.9223 15.08836130 90721,6917.892,95.438,540.597,538.917,0.0
52581.0,STARLINK-3915,PAYLOAD,2023-12-30 13:26:56,15.08841823,0.0001264,53.2169,111.0445,81.5755,278.538,0.00014952,2.093e-05,0.0,0 STARLINK-3915,1 52581U 22051AX  23364.56037991  .00002093  00000-0  14952-3 0  9997,2 52581  53.2169 111.0445 0001264  81.5755 278.5380 15.08841823 90797,6917.875,95.437,540.614,538.865,0.0
52581.0,STARLINK-3915,PAYLOAD,2023-12-30 16:37:42,15.08847556,0.0001267,53.2173,110.4483,92.1174,267.9963,0.00019913,2.883e-05,0.0,0 STARLINK-3915,1 52581U 22051AX  23364.69285474  .00002883  00000-0  19913-3 0  9991,2 52581  53.2173 110.4483 0001267  92.1174 267.9963 15.08847556 90881,6917.857,95.437,540.599,538.846,0.0
52581.0,STARLINK-3915,PAYLOAD,2023-12-31 11:42:21,15.08840935,0.0001394,53.2187,106.8773,123.6038,236.5088,-7.5573e-06,-4.08e-06,0.0,0 STARLINK-3915,1 52581U 22051AX  23365.48774438 -.00000408  00000-0 -75573-5 0  9991,2 52581  53.2187 106.8773 0001394 123.6038 236.5088 15.08840935 91006,6917.878,95.437,540.707,538.778,0.0
52581.0,STARLINK-3915,PAYLOAD,2023-12-31 16:28:30,15.08835117,0.0001494,53.2192,105.9832,148.7678,211.3403,0.00014362,1.998e-05,0.0,0 STARLINK-3915,1 52581U 22051AX  23365.68646287  .00001998  00000-0  14362-3 0  9993,2 52581  53.2192 105.9832 0001494 148.7678 211.3403 15.08835117 90969,6917.895,95.438,540.794,538.727,0.0
52581.0,STARLINK-3915,PAYLOAD,2024-01-01 11:33:07,15.0885096,0.0001475,53.2181,102.4193,96.8845,263.2315,6.251e-05,7.07e-06,0.0,0 STARLINK-3915,1 52581U 22051AX  24001.48133739  .00000707  00000-0  62510-4 0  9998,2 52581  53.2181 102.4193 0001475  96.8845 263.2315 15.08850960 91150,6917.847,95.437,540.732,538.692,0.0
52581.0,STARLINK-3915,PAYLOAD,2024-01-01 13:08:30,15.08854387,0.0001422,53.2183,102.1221,95.0395,265.0759,5.5515e-05,5.96e-06,0.0,0 STARLINK-3915,1 52581U 22051AX  24001.54757501  .00000596  00000-0  55515-4 0  9997,2 52581  53.2183 102.1221 0001422  95.0395 265.0759 15.08854387 91096,6917.836,95.437,540.685,538.718,0.0
52581.0,STARLINK-3915,PAYLOAD,2024-01-01 16:19:16,15.08855057,0.0001538,53.2178,101.5269,85.0932,275.0236,0.00010247,1.344e-05,0.0,0 STARLINK-3915,1 52581U 22051AX  24001.68005381  .00001344  00000-0  10247-3 0  9998,2 52581  53.2178 101.5269 0001538  85.0932 275.0236 15.08855057 91118,6917.834,95.437,540.763,538.635,0.0
52581.0,STARLINK-3915,PAYLOAD,2024-01-02 11:23:54,15.08845767,0.0001506,53.2176,97.9554,84.385,275.7314,0.00011664,1.569e-05,0.0,0 STARLINK-3915,1 52581U 22051AX  24002.47493932  .00001569  00000-0  11664-3 0  9992,2 52581  53.2176  97.9554 0001506  84.3850 275.7314 15.08845767 91309,6917.863,95.437,540.77,538.686,0.0
52581.0,STARLINK-3915,PAYLOAD,2024-01-02 12:59:17,15.08845309,0.000143,53.2184,97.6611,89.1072,271.0084,0.00010773,1.427e-05,0.0,0 STARLINK-3915,1 52581U 22051AX  24002.54117965  .00001427  00000-0  10773-3 0  9992,2 52581  53.2184  97.6611 0001430  89.1072 271.0084 15.08845309 91242,6917.864,95.437,540.718,538.74,0.0
52581.0,STARLINK-3915,PAYLOAD,2024-01-03 11:14:45,15.08806256,0.0001691,53.2181,93.4968,103.3158,256.8023,-0.00024697,-4.213e-05,0.0,0 STARLINK-3915,1 52581U 22051AX  24003.46858001 -.00004213  00000-0 -24697-3 0  9995,2 52581  53.2181  93.4968 0001691 103.3158 256.8023 15.08806256 91456,6917.984,95.44,541.018,538.679,0.0
52581.0,STARLINK-3915,PAYLOAD,2024-01-04 11:05:29,15.08843666,0.0001508,53.2177,89.0398,87.3694,272.747,0.00013017,1.784e-05,0.0,0 STARLINK-3915,1 52581U 22051AX  24004.46214989  .00001784  00000-0  13017-3 0  9999,2 52581  53.2177  89.0398 0001508  87.3694 272.7470 15.08843666 91608,6917.869,95.437,540.777,538.691,0.0
52581.0,STARLINK-3915,PAYLOAD,2024-01-04 14:16:15,15.08856495,0.0001421,53.2184,88.4435,92.5201,267.5954,0.00022388,3.278e-05,0.0,0 STARLINK-3915,1 52581U 22051AX  24004.59461947  .00003278  00000-0  22388-3 0  9992,2 52581  53.2184  88.4435 0001421  92.5201 267.5954 15.08856495 91554,6917.83,95.437,540.678,538.712,0.0
